{"type": "FeatureCollection", "features": [ {"type": "Feature", "properties": {"norad_id": 67153, "name": "KUIPER-00248", "group": "last-30-days", "lat": -48.282733225894226, "lon": -7.945269241048707, "alt_km": 470.9000191134792, "timestamp": "2025-12-27T12:55:13.199235+00:00", "meta": {"OBJECT_NAME": "KUIPER-00248", "OBJECT_ID": "2025-301W", "EPOCH": "2025-12-27T05:25:06.007872", "MEAN_MOTION": 15.34736995, "ECCENTRICITY": 0.00087653, "INCLINATION": 51.8682, "RA_OF_ASC_NODE": 55.3422, "ARG_OF_PERICENTER": 145.2747, "MEAN_ANOMALY": 214.8812, "EPHEMERIS_TYPE": 0, "CLASSIFICATION_TYPE": "U", "NORAD_CAT_ID": 67153, "ELEMENT_SET_NO": 999, "REV_AT_EPOCH": 276, "BSTAR": 0.0011390304, "MEAN_MOTION_DOT": 0.00038799, "MEAN_MOTION_DDOT": 0}, "tle": {"line1": "1 67153U 25301W   25361.22576398  .00038799  00000+0  11390-2 0  9993", "line2": "2 67153  51.8682  55.3422 0008765 145.2747 214.8812 15.34736995  2764"}}, "geometry": {"type": "Point", "coordinates": [-7.945269241048707, -48.282733225894226]}}, {"type": "Feature", "properties": {"norad_id": 67154, "name": "KUIPER-00249", "group": "last-30-days", "lat": -44.78902376442619, "lon": 2.5734114840031017, "alt_km": 470.5996185057502, "timestamp": "2025-12-27T12:55:13.199247+00:00", "meta": {"OBJECT_NAME": "KUIPER-00249", "OBJECT_ID": "2025-301X", "EPOCH": "2025-12-27T05:23:02.131872", "MEAN_MOTION": 15.34862959, "ECCENTRICITY": 0.00079991, "INCLINATION": 51.8658, "RA_OF_ASC_NODE": 55.3342, "ARG_OF_PERICENTER": 141.2405, "MEAN_ANOMALY": 218.9156, "EPHEMERIS_TYPE": 0, "CLASSIFICATION_TYPE": "U", "NORAD_CAT_ID": 67154, "ELEMENT_SET_NO": 999, "REV_AT_EPOCH": 259, "BSTAR": 0.0012083038, "MEAN_MOTION_DOT": 0.00041355, "MEAN_MOTION_DDOT": 0}, "tle": {"line1": "1 67154U 25301X   25361.22433023  .00041355  00000+0  12083-2 0  9993", "line2": "2 67154  51.8658  55.3342 0007999 141.2405 218.9156 15.34862959  2591"}}, "geometry": {"type": "Point", "coordinates": [2.5734114840031017, -44.78902376442619]}}, {"type": "Feature", "properties": {"norad_id": 67155, "name": "KUIPER-00250", "group": "last-30-days", "lat": -33.04114696763772, "lon": 23.056476662372965, "alt_km": 467.71913388013945, "timestamp": "2025-12-27T12:55:13.199257+00:00", "meta": {"OBJECT_NAME": "KUIPER-00250", "OBJECT_ID": "2025-301Y", "EPOCH": "2025-12-27T05:18:02.331648", "MEAN_MOTION": 15.35408089, "ECCENTRICITY": 0.00061725, "INCLINATION": 51.8719, "RA_OF_ASC_NODE": 55.3101, "ARG_OF_PERICENTER": 130.5289, "MEAN_ANOMALY": 229.6235, "EPHEMERIS_TYPE": 0, "CLASSIFICATION_TYPE": "U", "NORAD_CAT_ID": 67155, "ELEMENT_SET_NO": 999, "REV_AT_EPOCH": 262, "BSTAR": 0.0011706864, "MEAN_MOTION_DOT": 0.00040744, "MEAN_MOTION_DDOT": 0}, "tle": {"line1": "1 67155U 25301Y   25361.22086032  .00040744  00000+0  11707-2 0  9991", "line2": "2 67155  51.8719  55.3101 0006172 130.5289 229.6235 15.35408089  2628"}}, "geometry": {"type": "Point", "coordinates": [23.056476662372965, -33.04114696763772]}}, {"type": "Feature", "properties": {"norad_id": 67156, "name": "KUIPER-00251", "group": "last-30-days", "lat": -46.81393614120495, "lon": -2.993852849658503, "alt_km": 471.16936152961534, "timestamp": "2025-12-27T12:55:13.199267+00:00", "meta": {"OBJECT_NAME": "KUIPER-00251", "OBJECT_ID": "2025-301Z", "EPOCH": "2025-12-27T05:24:10.319616", "MEAN_MOTION": 15.34827954, "ECCENTRICITY": 0.00089353, "INCLINATION": 51.8669, "RA_OF_ASC_NODE": 55.3377, "ARG_OF_PERICENTER": 140.8185, "MEAN_ANOMALY": 219.3449, "EPHEMERIS_TYPE": 0, "CLASSIFICATION_TYPE": "U", "NORAD_CAT_ID": 67156, "ELEMENT_SET_NO": 999, "REV_AT_EPOCH": 278, "BSTAR": 0.00095667227, "MEAN_MOTION_DOT": 0.00032595, "MEAN_MOTION_DDOT": 0}, "tle": {"line1": "1 67156U 25301Z   25361.22511944  .00032595  00000+0  95667-3 0  9990", "line2": "2 67156  51.8669  55.3377 0008935 140.8185 219.3449 15.34827954  2781"}}, "geometry": {"type": "Point", "coordinates": [-2.993852849658503, -46.81393614120495]}}, {"type": "Feature", "properties": {"norad_id": 67157, "name": "KUIPER-00252", "group": "last-30-days", "lat": -51.63062608780609, "lon": -29.009334430948904, "alt_km": 471.0818888609874, "timestamp": "2025-12-27T12:55:13.199277+00:00", "meta": {"OBJECT_NAME": "KUIPER-00252", "OBJECT_ID": "2025-301AA", "EPOCH": "2025-12-27T05:28:37.236000", "MEAN_MOTION": 15.3432587, "ECCENTRICITY": 0.00097672, "INCLINATION": 51.8663, "RA_OF_ASC_NODE": 55.3581, "ARG_OF_PERICENTER": 150.9967, "MEAN_ANOMALY": 209.1563, "EPHEMERIS_TYPE": 0, "CLASSIFICATION_TYPE": "U", "NORAD_CAT_ID": 67157, "ELEMENT_SET_NO": 999, "REV_AT_EPOCH": 259, "BSTAR": 0.00091648658, "MEAN_MOTION_DOT": 0.00030711, "MEAN_MOTION_DDOT": 0}, "tle": {"line1": "1 67157U 25301AA  25361.22820875  .00030711  00000+0  91649-3 0  9991", "line2": "2 67157  51.8663  55.3581 0009767 150.9967 209.1563 15.34325870  2590"}}, "geometry": {"type": "Point", "coordinates": [-29.009334430948904, -51.63062608780609]}}, {"type": "Feature", "properties": {"norad_id": 67158, "name": "KUIPER-00261", "group": "last-30-days", "lat": -28.851252376105762, "lon": 28.125623798305238, "alt_km": 466.9027601646221, "timestamp": "2025-12-27T12:55:13.199287+00:00", "meta": {"OBJECT_NAME": "KUIPER-00261", "OBJECT_ID": "2025-301AB", "EPOCH": "2025-12-27T06:50:12.020640", "MEAN_MOTION": 15.35473157, "ECCENTRICITY": 0.00057061, "INCLINATION": 51.8701, "RA_OF_ASC_NODE": 54.9904, "ARG_OF_PERICENTER": 128.7178, "MEAN_ANOMALY": 231.4318, "EPHEMERIS_TYPE": 0, "CLASSIFICATION_TYPE": "U", "NORAD_CAT_ID": 67158, "ELEMENT_SET_NO": 999, "REV_AT_EPOCH": 260, "BSTAR": 0.000766936, "MEAN_MOTION_DOT": 0.00026563, "MEAN_MOTION_DDOT": 0}, "tle": {"line1": "1 67158U 25301AB  25361.28486135  .00026563  00000+0  76694-3 0  9998", "line2": "2 67158  51.8701  54.9904 0005706 128.7178 231.4318 15.35473157  2605"}}, "geometry": {"type": "Point", "coordinates": [28.125623798305238, -28.851252376105762]}}, {"type": "Feature", "properties": {"norad_id": 67159, "name": "KUIPER-00265", "group": "last-30-days", "lat": 1.2666531672726642, "lon": 54.677710981773544, "alt_km": 457.28569637793134, "timestamp": "2025-12-27T12:55:13.199297+00:00", "meta": {"OBJECT_NAME": "KUIPER-00265", "OBJECT_ID": "2025-301AC", "EPOCH": "2025-12-27T06:40:09.292512", "MEAN_MOTION": 15.36462865, "ECCENTRICITY": 0.00019449, "INCLINATION": 51.874, "RA_OF_ASC_NODE": 54.9409, "ARG_OF_PERICENTER": 97.0641, "MEAN_ANOMALY": 263.0567, "EPHEMERIS_TYPE": 0, "CLASSIFICATION_TYPE": "U", "NORAD_CAT_ID": 67159, "ELEMENT_SET_NO": 999, "REV_AT_EPOCH": 263, "BSTAR": 0.00060752387, "MEAN_MOTION_DOT": 0.00021625, "MEAN_MOTION_DDOT": 0}, "tle": {"line1": "1 67159U 25301AC  25361.27788533  .00021625  00000+0  60752-3 0  9997", "line2": "2 67159  51.8740  54.9409 0001944  97.0641 263.0567 15.36462865  2637"}}, "geometry": {"type": "Point", "coordinates": [54.677710981773544, 1.2666531672726642]}}, {"type": "Feature", "properties": {"norad_id": 67160, "name": "GALILEO A", "group": "last-30-days", "lat": 54.10534775083607, "lon": -169.1965472478827, "alt_km": 22959.322163901983, "timestamp": "2025-12-27T12:55:13.199309+00:00", "meta": {"OBJECT_NAME": "GALILEO A", "OBJECT_ID": "2025-302A", "EPOCH": "2025-12-18T03:30:19.486368", "MEAN_MOTION": 1.72906186, "ECCENTRICITY": 0.00084238, "INCLINATION": 54.2406, "RA_OF_ASC_NODE": 107.2544, "ARG_OF_PERICENTER": 237.6458, "MEAN_ANOMALY": 122.2317, "EPHEMERIS_TYPE": 0, "CLASSIFICATION_TYPE": "U", "NORAD_CAT_ID": 67160, "ELEMENT_SET_NO": 999, "REV_AT_EPOCH": 2, "BSTAR": 0, "MEAN_MOTION_DOT": -7e-08, "MEAN_MOTION_DDOT": 0}, "tle": {"line1": "1 67160U 25302A   25352.14605887 -.00000007  00000+0  00000+0 0  9994", "line2": "2 67160  54.2406 107.2544 0008423 237.6458 122.2317  1.72906186    28"}}, "geometry": {"type": "Point", "coordinates": [-169.1965472478827, 54.10534775083607]}}, {"type": "Feature", "properties": {"norad_id": 67161, "name": "GALILEO B", "group": "last-30-days", "lat": 54.2321135550223, "lon": -165.00593196861797, "alt_km": 22943.81401565025, "timestamp": "2025-12-27T12:55:13.199320+00:00", "meta": {"OBJECT_NAME": "GALILEO B", "OBJECT_ID": "2025-302B", "EPOCH": "2025-12-26T19:37:10.068960", "MEAN_MOTION": 1.72972318, "ECCENTRICITY": 0.00047769, "INCLINATION": 54.2304, "RA_OF_ASC_NODE": 106.9693, "ARG_OF_PERICENTER": 256.4913, "MEAN_ANOMALY": 103.4489, "EPHEMERIS_TYPE": 0, "CLASSIFICATION_TYPE": "U", "NORAD_CAT_ID": 67161, "ELEMENT_SET_NO": 999, "REV_AT_EPOCH": 18, "BSTAR": 0, "MEAN_MOTION_DOT": 1.6e-07, "MEAN_MOTION_DDOT": 0}, "tle": {"line1": "1 67161U 25302B   25360.81747765  .00000016  00000+0  00000+0 0  9999", "line2": "2 67161  54.2304 106.9693 0004776 256.4913 103.4489  1.72972318   187"}}, "geometry": {"type": "Point", "coordinates": [-165.00593196861797, 54.2321135550223]}}, {"type": "Feature", "properties": {"norad_id": 67162, "name": "ARIANE 6 R/B", "group": "last-30-days", "lat": 54.00636436957957, "lon": -155.12302192980275, "alt_km": 22912.040996823824, "timestamp": "2025-12-27T12:55:13.199334+00:00", "meta": {"OBJECT_NAME": "ARIANE 6 R/B", "OBJECT_ID": "2025-302C", "EPOCH": "2025-12-19T07:12:31.071168", "MEAN_MOTION": 1.73130298, "ECCENTRICITY": 2.559e-05, "INCLINATION": 54.2437, "RA_OF_ASC_NODE": 107.222, "ARG_OF_PERICENTER": 160.7324, "MEAN_ANOMALY": 199.2296, "EPHEMERIS_TYPE": 0, "CLASSIFICATION_TYPE": "U", "NORAD_CAT_ID": 67162, "ELEMENT_SET_NO": 999, "REV_AT_EPOCH": 8, "BSTAR": 0, "MEAN_MOTION_DOT": -5e-08, "MEAN_MOTION_DDOT": 0}, "tle": {"line1": "1 67162U 25302C   25353.30035962 -.00000005  00000+0  00000+0 0  9994", "line2": "2 67162  54.2437 107.2220 0000255 160.7324 199.2296  1.73130298    88"}}, "geometry": {"type": "Point", "coordinates": [-155.12302192980275, 54.00636436957957]}}]}